[{"OBJECT_NAME":"ALOS (DAICHI)","OBJECT_ID":"2006-002A","EPOCH":"2026-03-21T09:59:21.952320","MEAN_MOTION":14.69845399,"ECCENTRICITY":7.026e-5,"INCLINATION":98.124,"RA_OF_ASC_NODE":36.3145,"ARG_OF_PERICENTER":87.713,"MEAN_ANOMALY":272.4156,"EPHEMERIS_TYPE":0,"CLASSIFICATION_TYPE":"U","NORAD_CAT_ID":28931,"ELEMENT_SET_NO":999,"REV_AT_EPOCH":7520,"BSTAR":0.00022916718,"MEAN_MOTION_DOT":1.32e-5,"MEAN_MOTION_DDOT":0},{"OBJECT_NAME":"H-2A R/B","OBJECT_ID":"2006-002B","EPOCH":"2026-03-22T03:29:25.911456","MEAN_MOTION":15.16682188,"ECCENTRICITY":0.0052219,"INCLINATION":98.2443,"RA_OF_ASC_NODE":229.2443,"ARG_OF_PERICENTER":198.262,"MEAN_ANOMALY":161.6738,"EPHEMERIS_TYPE":0,"CLASSIFICATION_TYPE":"U","NORAD_CAT_ID":28932,"ELEMENT_SET_NO":999,"REV_AT_EPOCH":9632,"BSTAR":0.00061818406,"MEAN_MOTION_DOT":0.00012466,"MEAN_MOTION_DDOT":0},{"OBJECT_NAME":"RESURS-DK 1","OBJECT_ID":"2006-021A","EPOCH":"2026-03-21T18:25:59.240928","MEAN_MOTION":15.12824263,"ECCENTRICITY":7.197e-5,"INCLINATION":69.9338,"RA_OF_ASC_NODE":205.7779,"ARG_OF_PERICENTER":117.7974,"MEAN_ANOMALY":242.3265,"EPHEMERIS_TYPE":0,"CLASSIFICATION_TYPE":"U","NORAD_CAT_ID":29228,"ELEMENT_SET_NO":999,"REV_AT_EPOCH":8935,"BSTAR":0.00018690412,"MEAN_MOTION_DOT":3.184e-5,"MEAN_MOTION_DDOT":0},{"OBJECT_NAME":"CZ-4B R/B","OBJECT_ID":"2006-046C","EPOCH":"2026-03-22T01:49:45.479712","MEAN_MOTION":15.17022615,"ECCENTRICITY":0.00321574,"INCLINATION":97.5564,"RA_OF_ASC_NODE":125.9512,"ARG_OF_PERICENTER":222.4797,"MEAN_ANOMALY":137.3948,"EPHEMERIS_TYPE":0,"CLASSIFICATION_TYPE":"U","NORAD_CAT_ID":29507,"ELEMENT_SET_NO":999,"REV_AT_EPOCH":6192,"BSTAR":0.00030962945,"MEAN_MOTION_DOT":6.133e-5,"MEAN_MOTION_DDOT":0},{"OBJECT_NAME":"CZ-2C R/B","OBJECT_ID":"2007-010B","EPOCH":"2026-03-22T06:23:05.193312","MEAN_MOTION":14.20250587,"ECCENTRICITY":0.00578761,"INCLINATION":98.399,"RA_OF_ASC_NODE":193.9152,"ARG_OF_PERICENTER":257.3269,"MEAN_ANOMALY":102.1434,"EPHEMERIS_TYPE":0,"CLASSIFICATION_TYPE":"U","NORAD_CAT_ID":31114,"ELEMENT_SET_NO":999,"REV_AT_EPOCH":98150,"BSTAR":8.406472e-5,"MEAN_MOTION_DOT":1.41e-6,"MEAN_MOTION_DDOT":0},{"OBJECT_NAME":"COSMO-SKYMED 1","OBJECT_ID":"2007-023A","EPOCH":"2026-03-22T05:37:11.505216","MEAN_MOTION":14.96627894,"ECCENTRICITY":0.0001236,"INCLINATION":97.888,"RA_OF_ASC_NODE":272.3685,"ARG_OF_PERICENTER":87.3249,"MEAN_ANOMALY":272.8114,"EPHEMERIS_TYPE":0,"CLASSIFICATION_TYPE":"U","NORAD_CAT_ID":31598,"ELEMENT_SET_NO":999,"REV_AT_EPOCH":1678,"BSTAR":0.00031366768,"MEAN_MOTION_DOT":3.516e-5,"MEAN_MOTION_DDOT":0},{"OBJECT_NAME":"COSMOS 2428","OBJECT_ID":"2007-029A","EPOCH":"2026-03-22T04:58:06.998016","MEAN_MOTION":14.12947767,"ECCENTRICITY":0.00095799,"INCLINATION":70.9441,"RA_OF_ASC_NODE":177.0721,"ARG_OF_PERICENTER":264.2709,"MEAN_ANOMALY":95.732,"EPHEMERIS_TYPE":0,"CLASSIFICATION_TYPE":"U","NORAD_CAT_ID":31792,"ELEMENT_SET_NO":999,"REV_AT_EPOCH":96586,"BSTAR":2.4894749e-5,"MEAN_MOTION_DOT":-2.0e-8,"MEAN_MOTION_DDOT":0},{"OBJECT_NAME":"SL-16 R/B","OBJECT_ID":"2007-029B","EPOCH":"2026-03-22T06:58:12.251712","MEAN_MOTION":14.14840797,"ECCENTRICITY":0.000243,"INCLINATION":70.9756,"RA_OF_ASC_NODE":145.8986,"ARG_OF_PERICENTER":276.9027,"MEAN_ANOMALY":147.4384,"EPHEMERIS_TYPE":0,"CLASSIFICATION_TYPE":"U","NORAD_CAT_ID":31793,"ELEMENT_SET_NO":999,"REV_AT_EPOCH":96715,"BSTAR":0.00017992494,"MEAN_MOTION_DOT":2.99e-6,"MEAN_MOTION_DDOT":0},{"OBJECT_NAME":"KORONAS-FOTON","OBJECT_ID":"2009-003A","EPOCH":"2026-03-22T06:38:28.459392","MEAN_MOTION":15.43631157,"ECCENTRICITY":0.00118187,"INCLINATION":82.4273,"RA_OF_ASC_NODE":262.7861,"ARG_OF_PERICENTER":108.827,"MEAN_ANOMALY":251.4261,"EPHEMERIS_TYPE":0,"CLASSIFICATION_TYPE":"U","NORAD_CAT_ID":33504,"ELEMENT_SET_NO":999,"REV_AT_EPOCH":94768,"BSTAR":0.00033913918,"MEAN_MOTION_DOT":0.00015346,"MEAN_MOTION_DDOT":0},{"OBJECT_NAME":"CZ-2C R/B","OBJECT_ID":"2011-030B","EPOCH":"2026-03-22T04:00:27.489312","MEAN_MOTION":14.81265842,"ECCENTRICITY":0.00513966,"INCLINATION":97.8567,"RA_OF_ASC_NODE":38.1823,"ARG_OF_PERICENTER":311.0065,"MEAN_ANOMALY":58.9699,"EPHEMERIS_TYPE":0,"CLASSIFICATION_TYPE":"U","NORAD_CAT_ID":37731,"ELEMENT_SET_NO":999,"REV_AT_EPOCH":79194,"BSTAR":0.00019215839,"MEAN_MOTION_DOT":1.477e-5,"MEAN_MOTION_DDOT":0},{"OBJECT_NAME":"H-2A R/B","OBJECT_ID":"2012-025E","EPOCH":"2026-03-22T04:13:10.892064","MEAN_MOTION":14.95249809,"ECCENTRICITY":0.00429883,"INCLINATION":98.4751,"RA_OF_ASC_NODE":49.2238,"ARG_OF_PERICENTER":271.9953,"MEAN_ANOMALY":87.6342,"EPHEMERIS_TYPE":0,"CLASSIFICATION_TYPE":"U","NORAD_CAT_ID":38341,"ELEMENT_SET_NO":999,"REV_AT_EPOCH":75008,"BSTAR":0.00031870906,"MEAN_MOTION_DOT":3.501e-5,"MEAN_MOTION_DDOT":0},{"OBJECT_NAME":"SHIJIAN-16 (SJ-16)","OBJECT_ID":"2013-057A","EPOCH":"2026-03-22T07:10:46.822656","MEAN_MOTION":14.92395264,"ECCENTRICITY":0.00152908,"INCLINATION":74.9733,"RA_OF_ASC_NODE":161.2192,"ARG_OF_PERICENTER":79.8128,"MEAN_ANOMALY":280.4784,"EPHEMERIS_TYPE":0,"CLASSIFICATION_TYPE":"U","NORAD_CAT_ID":39358,"ELEMENT_SET_NO":999,"REV_AT_EPOCH":67338,"BSTAR":0.00018721029,"MEAN_MOTION_DOT":1.892e-5,"MEAN_MOTION_DDOT":0},{"OBJECT_NAME":"SL-4 R/B","OBJECT_ID":"2014-021B","EPOCH":"2026-03-21T21:33:45.991872","MEAN_MOTION":15.39567637,"ECCENTRICITY":0.00965014,"INCLINATION":51.6053,"RA_OF_ASC_NODE":277.6994,"ARG_OF_PERICENTER":147.4633,"MEAN_ANOMALY":213.2348,"EPHEMERIS_TYPE":0,"CLASSIFICATION_TYPE":"U","NORAD_CAT_ID":39679,"ELEMENT_SET_NO":999,"REV_AT_EPOCH":65815,"BSTAR":0.00045368617,"MEAN_MOTION_DOT":0.00020971,"MEAN_MOTION_DDOT":0},{"OBJECT_NAME":"ALOS-2","OBJECT_ID":"2014-029A","EPOCH":"2026-03-22T05:32:06.488160","MEAN_MOTION":14.79419225,"ECCENTRICITY":0.00018237,"INCLINATION":97.9195,"RA_OF_ASC_NODE":179.6455,"ARG_OF_PERICENTER":110.1117,"MEAN_ANOMALY":250.0291,"EPHEMERIS_TYPE":0,"CLASSIFICATION_TYPE":"U","NORAD_CAT_ID":39766,"ELEMENT_SET_NO":999,"REV_AT_EPOCH":63872,"BSTAR":0.00026716293,"MEAN_MOTION_DOT":1.942e-5,"MEAN_MOTION_DDOT":0},{"OBJECT_NAME":"YAOGAN-29","OBJECT_ID":"2015-069A","EPOCH":"2026-03-22T06:38:32.628192","MEAN_MOTION":14.83006664,"ECCENTRICITY":0.0001055,"INCLINATION":98.0121,"RA_OF_ASC_NODE":109.7386,"ARG_OF_PERICENTER":13.8612,"MEAN_ANOMALY":346.2631,"EPHEMERIS_TYPE":0,"CLASSIFICATION_TYPE":"U","NORAD_CAT_ID":41038,"ELEMENT_SET_NO":999,"REV_AT_EPOCH":55774,"BSTAR":1.5343358e-5,"MEAN_MOTION_DOT":7.1e-7,"MEAN_MOTION_DDOT":0},{"OBJECT_NAME":"ASTRO-H (HITOMI)","OBJECT_ID":"2016-012A","EPOCH":"2026-03-21T22:17:35.342592","MEAN_MOTION":15.10079489,"ECCENTRICITY":0.0009604,"INCLINATION":30.9991,"RA_OF_ASC_NODE":277.5614,"ARG_OF_PERICENTER":94.3396,"MEAN_ANOMALY":265.834,"EPHEMERIS_TYPE":0,"CLASSIFICATION_TYPE":"U","NORAD_CAT_ID":41337,"ELEMENT_SET_NO":999,"REV_AT_EPOCH":55408,"BSTAR":0.00018889764,"MEAN_MOTION_DOT":3.249e-5,"MEAN_MOTION_DDOT":0}]
